0 TOPO 1
1  4363U 70025B   18314.21684418 -.00000033  00000-0  19470-4 0  9993
2  4363  99.9940 212.9017 0001573 330.4652 181.3790 13.46572218388028
0 THORAD AGENA D R/B
1  4367U 70025C   18313.90558851 -.00000037 +00000-0 +16051-4 0  9999
2  4367 100.2264 303.1028 0035865 003.9023 052.9626 13.51287922407931
0 SL-8 R/B
1  4370U 70028B   18314.89223879  .00000037  00000-0  13944-4 0  9991
2  4370  74.0394 193.1653 0015987 336.8853  23.1591 14.59958910 86654
0 INTELSAT 3-F7
1  4376U 70032A   18314.27774988 -.00000273  00000-0  00000+0 0  9993
2  4376   4.5391 291.5488 0005747 342.0356  17.8520  1.00270147177849
0 INTELSAT 3-F7
1  4376U 70032A   18313.28042207 -.00000275 +00000-0 +00000-0 0  9998
2  4376 004.5413 291.5611 0005728 341.7574 018.1032 01.00270497019518
0 DELTA 1 R/B
1  4377U 70032B   18313.68741925 +.00005673 +00000-0 +94044-3 0  9996
2  4377 026.7300 124.9033 5937047 150.7059 262.6462 04.14537627515283
0 COSMOS 336
1  4383U 70036A   18313.78590925 -.00000023 +00000-0 -45653-4 0  9999
2  4383 074.0306 067.5912 0015046 329.0012 142.2964 12.47616672210613
0 COSMOS 337
1  4384U 70036B   18313.77358191 -.00000026 +00000-0 -85052-4 0  9996
2  4384 074.0291 072.5312 0052976 072.3546 039.3499 12.39212125195785
0 COSMOS 338
1  4385U 70036C   18313.88141760 -.00000023 +00000-0 -54307-4 0  9997
2  4385 074.0280 254.4136 0032587 225.0817 189.8776 12.43329192203027
0 COSMOS 338
1  4385U 70036C   18314.21095608 -.00000023  00000-0 -53226-4 0  9993
2  4385  74.0280 253.9811 0032584 224.6026 224.8767 12.43329186203488
0 COSMOS 339
1  4386U 70036D   18313.90798010 -.00000012 +00000-0 +27913-4 0  9997
2  4386 074.0292 242.6392 0015055 017.0892 047.7280 12.51826885218092
0 COSMOS 340
1  4387U 70036E   18313.72133959 -.00000022 +00000-0 -35733-4 0  9994
2  4387 074.0308 045.9448 0039178 153.4251 320.1172 12.56285220225850
0 COSMOS 341
1  4388U 70036F   18313.70441215 -.00000014 +00000-0 +12939-4 0  9993
2  4388 074.0316 048.4045 0080279 098.9408 011.7465 12.64294959240006
0 COSMOS 342
1  4389U 70036G   18313.88309553 -.00000007 +00000-0 +50482-4 0  9998
2  4389 074.0296 228.4602 0102198 250.6905 171.8162 12.68279875247123
0 COSMOS 343
1  4390U 70036H   18313.91383525 -.00000021 +00000-0 -24950-4 0  9993
2  4390 074.0289 222.2556 0060611 293.3661 135.6148 12.60407523233282
0 SL-8 R/B
1  4391U 70036J   18313.90947213 +.00000013 +00000-0 +22817-3 0  9991
2  4391 074.0284 251.0850 0076922 286.1510 128.7674 12.34966828188319
0 SL-8 R/B
1  4391U 70036J   18314.88578956  .00000026  00000-0  33093-3 0  9995
2  4391  74.0285 249.8234 0076919 284.7356 149.3466 12.34966901188825
0 SL-3 R/B
1  4394U 70037B   18313.92636073 +.00001026 +00000-0 +34435-4 0  9991
2  4394 081.2400 134.6733 0039710 177.1047 183.0427 15.29098567643269
0 METEOR 1-5
1  4419U 70047A   18313.92020405 +.00000119 +00000-0 +53728-4 0  9994
2  4419 081.2167 091.5866 0040284 059.0355 301.4767 14.15414583495939
0 SL-3 R/B
1  4420U 70047B   18313.72100734 +.00000067 +00000-0 +29001-4 0  9997
2  4420 081.2312 193.8197 0086652 233.2343 126.0853 14.12053001490133
0 SL-3 R/B
1  4420U 70047B   18314.14616052  .00000076  00000-0  33551-4 0  9994
2  4420  81.2312 193.4039 0086658 232.0006 127.3319 14.12053053490614
0 COSMOS 252 DEB *
1  4421U 68097CF  18313.60086885 +.00000323 +00000-0 +80616-4 0  9991
2  4421 062.7417 315.2570 0765363 135.7353 230.7572 13.61177444179292
0 THORAD AGENA D DEB
1  4432U 69082ED  18313.50809991 +.00000068 +00000-0 +50648-4 0  9996
2  4432 069.9784 084.5427 0056359 332.8019 027.0153 14.27001494538660
0 THORAD AGENA D DEB
1  4435U 69082EG  18313.89787560 +.00000486 +00000-0 +11519-3 0  9995
2  4435 070.0219 155.4290 0023006 343.7010 016.3387 14.59882935559676
0 THORAD AGENA D DEB
1  4438U 69082EK  18313.33831588 +.00000147 +00000-0 +48375-4 0  9992
2  4438 070.0999 300.7944 0059449 253.4663 105.9938 14.55269064569818
0 THORAD AGENA D DEB
1  4438U 69082EK  18314.09440020  .00000138  00000-0  46256-4 0  9999
2  4438  70.0999 299.0218 0059430 252.4221 107.0419 14.55269378570481
0 THORAD AGENA D DEB
1  4449U 69082EU  18313.54649531 +.00000249 +00000-0 +10230-3 0  9993
2  4449 069.9768 003.4084 0062626 283.2686 076.1461 14.36735005540888
0 THORAD AGENA D DEB
1  4451U 69082EW  18313.63260475 +.00000276 +00000-0 +95275-4 0  9995
2  4451 070.0394 030.3639 0034219 092.8905 267.6144 14.45247803553680
0 THORAD AGENA D DEB
1  4453U 69082EY  18313.71554660 +.00000288 +00000-0 +19302-3 0  9997
2  4453 070.1315 092.8102 0036569 297.9069 061.8343 14.09850312517009
0 THORAD AGENA D DEB
1  4468U 69082FM  18313.64889931 +.00000039 +00000-0 +77778-4 0  9993
2  4468 070.0718 155.9610 0089031 230.7109 128.6071 13.84664002471345
0 INTELSAT 3-F8
1  4478U 70055A   18313.68071437 -.00000169 +00000-0 +00000-0 0  9999
2  4478 001.2263 299.5410 0336722 190.5733 031.2378 01.02265483094435
0 INTELSAT 3-F8
1  4478U 70055A   18314.55393499 -.00000201  00000-0  00000+0 0  9997
2  4478   1.2245 299.5553 0336696 190.5735 352.7110  1.02265747 94488
0 DELTA 1 R/B
1  4486U 70055B   18314.42075649  .00624075 -24105-5  11345-2 0  9991
2  4486  27.9136 340.2987 1889121 131.9352 245.8381 11.96631340652311
0 DELTA 1 R/B
1  4486U 70055B   18314.17051375  .00610534 -23805-5  11110-2 0  9994
2  4486  27.9137 341.3389 1890547 130.2270 247.9611 11.96312987652283
0 DELTA 1 DEB
1  4499U 68069G   18313.09941828 -.00000044 +00000-0 +65402-5 0  9993
2  4499 101.7187 016.0479 0028334 344.0300 046.6672 12.51224745295925
0 OPS 0203 (DMSP 5A F2)
1  4512U 70070A   18313.51852010 +.00000009 +00000-0 +19830-4 0  9998
2  4512 099.0041 135.6658 0063855 322.3853 037.2873 14.34629524513340
0 OPS 0203 (DMSP 5A F2)
1  4512U 70070A   18314.14621161  .00000008  00000-0  19655-4 0  9993
2  4512  99.0041 136.3200 0063825 320.5324  39.1219 14.34629601513869
0 THORAD AGENA D DEB
1  4547U 69082GN  18313.56293883 +.00000246 +00000-0 +11985-3 0  9994
2  4547 069.9913 001.9638 0033661 062.5888 297.8652 14.28733706534868
0 SCOUT A DEB
1  4555U 66041F   18313.63485124 +.00000428 +00000-0 +13436-3 0  9999
2  4555 090.1458 017.7263 0052084 113.1210 247.5492 14.38429184023666
0 COSMOS 367
1  4564U 70079A   18313.93098506 -.00000090 +00000-0 -46336-5 0  9996
2  4564 065.2779 267.6412 0050895 049.5264 311.0216 13.78433410420646
0 COSMOS 371
1  4578U 70083A   18313.67821349 +.00000033 +00000-0 +14755-4 0  9990
2  4578 074.0011 036.8393 0003568 312.9482 047.1380 14.53881978541931
0 COSMOS 371
1  4578U 70083A   18314.29749819  .00000032  00000-0  14387-4 0  9990
2  4578  74.0011  35.6666 0003588 311.9377  48.1479 14.53882073542472
0 SL-8 R/B
1  4579U 70083B   18314.14102693  .00000053  00000-0  17162-4 0  9995
2  4579  74.0026 194.2343 0009290  79.6298 280.5914 14.60432753549364
0 SL-8 R/B
1  4579U 70083B   18313.73002123 +.00000045 +00000-0 +15532-4 0  9996
2  4579 074.0027 195.0206 0009290 080.6486 279.5730 14.60432669549239
0 COSMOS 372
1  4588U 70086A   18313.92296363 +.00000005 +00000-0 +10742-4 0  9995
2  4588 074.0553 267.1431 0013261 358.3350 055.9945 14.35972991514338
0 COSMOS 372
1  4588U 70086A   18314.06559236  .00000008  00000-0  11603-4 0  9992
2  4588  74.0553 266.8815 0013267 358.0258  73.3264 14.35972999514785
0 SL-11 R/B
1  4597U 70089B   18313.92009901 -.00000094 +00000-0 +53265-5 0  9995
2  4597 062.9443 176.3579 0960837 171.1921 190.7389 12.94740656400159
0 COSMOS 375
1  4598U 70091A   18313.92746384 -.00000098 +00000-0 +23105-5 0  9996
2  4598 062.8307 274.1433 0922199 230.4155 121.1840 12.96104809268632
0 COSMOS 375
1  4598U 70091A   18314.15892052 -.00000098  00000-0  22493-5 0  9995
2  4598  62.8307 273.5779 0922185 230.4423 121.1542 12.96104798268198
0 THORAD AGENA D DEB
1  4603U 70025F   18314.02335795  .00000433  00000-0  45749-3 0  9990
2  4603  99.6666 335.8424 0019652   4.8183  47.9334 13.80521570409109
0 THORAD AGENA D DEB
1  4603U 70025F   18313.89238634 +.00000428 +00000-0 +45245-3 0  9993
2  4603 099.6666 335.7086 0019643 005.1895 116.9919 13.80521388409109
0 THORAD AGENA D DEB
1  4607U 70025K   18313.92113897 +.00000006 +00000-0 +19737-3 0  9993
2  4607 100.1727 293.8326 0615590 268.1753 142.8218 12.30381988179778
0 THORAD AGENA D DEB
1  4607U 70025K   18314.18602862  .00000001  00000-0  17122-3 0  9998
2  4607 100.1727 294.0520 0615581 267.6500 236.1180 12.30381973180222
0 THORAD AGENA D DEB
1  4612U 70025Q   18313.76897222 +.00000853 +00000-0 +60759-3 0  9992
2  4612 099.6876 022.3890 0089266 269.4889 089.6043 13.98679921456315
0 THORAD AGENA D DEB
1  4613U 70025R   18313.68512482 -.00000333 +00000-0 -13632-3 0  9999
2  4613 098.8455 353.6986 0108053 221.9318 137.3545 14.16596800467429
0 THORAD AGENA D DEB
1  4614U 70025S   18313.89823613 +.00000144 +00000-0 +15907-3 0  9999
2  4614 100.0596 067.3379 0081832 180.6693 179.4364 13.87951270441015
0 THORAD AGENA D DEB
1  4614U 70025S   18313.97032309  .00000144  00000-0  15922-3 0  9999
2  4614 100.0596  67.4155 0081840 180.4825 179.6263 13.87951287441010
0 THORAD AGENA D DEB
1  4615U 70025T   18313.77513215 +.00000090 +00000-0 +15367-3 0  9991
2  4615 100.1154 239.8150 0060766 311.1498 101.8018 13.71101398421998
0 COSMOS 374 DEB
1  4616U 70089C   18313.92394231 +.00000123 +00000-0 +13622-3 0  9993
2  4616 062.7989 227.1136 0985714 137.8720 230.2471 12.70170628191176
0 COSMOS 374 DEB
1  4617U 70089D   18313.83041190 +.00000518 +00000-0 +11839-3 0  9993
2  4617 062.9481 036.9992 0468540 021.5731 340.4366 14.15554977372460
0 COSMOS 374 DEB
1  4617U 70089D   18314.81940390  .00000533  00000-0  12080-3 0  9998
2  4617  62.9482  34.0814 0468625  21.6708 340.3476 14.15556480373050
